CCSDS_OMM_VERS = 2.0
CREATION_DATE  = 
ORIGINATOR     = 

OBJECT_NAME    = COSMOS 2151
OBJECT_ID      = 1991-042A
CENTER_NAME    = EARTH
REF_FRAME      = TEME
TIME_SYSTEM    = UTC
MEAN_ELEMENT_THEORY = SGP/SGP4

EPOCH          = 2025-11-21T19:19:17.927040
MEAN_MOTION    = 14.99579747
ECCENTRICITY   = .0014042
INCLINATION    = 82.4977
RA_OF_ASC_NODE = 187.6743
ARG_OF_PERICENTER = 65.9169
MEAN_ANOMALY   = 294.3522

EPHEMERIS_TYPE = 0
CLASSIFICATION_TYPE = U
NORAD_CAT_ID   = 21422
ELEMENT_SET_NO = 999
REV_AT_EPOCH   = 84702
BSTAR          = .13529E-3
MEAN_MOTION_DOT = .1693E-4
MEAN_MOTION_DDOT = 0

CCSDS_OMM_VERS = 2.0
CREATION_DATE  = 
ORIGINATOR     = 

OBJECT_NAME    = SL-14 R/B
OBJECT_ID      = 1991-042B
CENTER_NAME    = EARTH
REF_FRAME      = TEME
TIME_SYSTEM    = UTC
MEAN_ELEMENT_THEORY = SGP/SGP4

EPOCH          = 2025-11-21T12:14:10.353120
MEAN_MOTION    = 14.81710718
ECCENTRICITY   = .0015727
INCLINATION    = 82.4913
RA_OF_ASC_NODE = 321.6341
ARG_OF_PERICENTER = 233.5476
MEAN_ANOMALY   = 126.4289

EPHEMERIS_TYPE = 0
CLASSIFICATION_TYPE = U
NORAD_CAT_ID   = 21423
ELEMENT_SET_NO = 999
REV_AT_EPOCH   = 83705
BSTAR          = .58577E-4
MEAN_MOTION_DOT = .485E-5
MEAN_MOTION_DDOT = 0

CCSDS_OMM_VERS = 2.0
CREATION_DATE  = 
ORIGINATOR     = 

OBJECT_NAME    = ERS-1
OBJECT_ID      = 1991-050A
CENTER_NAME    = EARTH
REF_FRAME      = TEME
TIME_SYSTEM    = UTC
MEAN_ELEMENT_THEORY = SGP/SGP4

EPOCH          = 2025-11-21T14:29:59.853408
MEAN_MOTION    = 14.39341715
ECCENTRICITY   = .003237
INCLINATION    = 98.7915
RA_OF_ASC_NODE = 336.1294
ARG_OF_PERICENTER = 161.1961
MEAN_ANOMALY   = 199.0429

EPHEMERIS_TYPE = 0
CLASSIFICATION_TYPE = U
NORAD_CAT_ID   = 21574
ELEMENT_SET_NO = 999
REV_AT_EPOCH   = 80018
BSTAR          = .13136E-3
MEAN_MOTION_DOT = .364E-5
MEAN_MOTION_DDOT = 0

CCSDS_OMM_VERS = 2.0
CREATION_DATE  = 
ORIGINATOR     = 

OBJECT_NAME    = ARIANE 40 R/B
OBJECT_ID      = 1991-050F
CENTER_NAME    = EARTH
REF_FRAME      = TEME
TIME_SYSTEM    = UTC
MEAN_ELEMENT_THEORY = SGP/SGP4

EPOCH          = 2025-11-21T16:53:49.786080
MEAN_MOTION    = 14.42788021
ECCENTRICITY   = .0003978
INCLINATION    = 98.2194
RA_OF_ASC_NODE = 16.8911
ARG_OF_PERICENTER = 56.5477
MEAN_ANOMALY   = 303.6094

EPHEMERIS_TYPE = 0
CLASSIFICATION_TYPE = U
NORAD_CAT_ID   = 21610
ELEMENT_SET_NO = 999
REV_AT_EPOCH   = 80342
BSTAR          = .13061E-3
MEAN_MOTION_DOT = .394E-5
MEAN_MOTION_DDOT = 0

CCSDS_OMM_VERS = 2.0
CREATION_DATE  = 
ORIGINATOR     = 

OBJECT_NAME    = INTERCOSMOS 25
OBJECT_ID      = 1991-086A
CENTER_NAME    = EARTH
REF_FRAME      = TEME
TIME_SYSTEM    = UTC
MEAN_ELEMENT_THEORY = SGP/SGP4

EPOCH          = 2025-11-21T13:58:13.528992
MEAN_MOTION    = 12.11632448
ECCENTRICITY   = .1487673
INCLINATION    = 82.6078
RA_OF_ASC_NODE = 15.3677
ARG_OF_PERICENTER = 350.0156
MEAN_ANOMALY   = 7.4105

EPHEMERIS_TYPE = 0
CLASSIFICATION_TYPE = U
NORAD_CAT_ID   = 21819
ELEMENT_SET_NO = 999
REV_AT_EPOCH   = 48359
BSTAR          = .23958E-3
MEAN_MOTION_DOT = .1223E-4
MEAN_MOTION_DDOT = 0

CCSDS_OMM_VERS = 2.0
CREATION_DATE  = 
ORIGINATOR     = 

OBJECT_NAME    = SL-8 R/B
OBJECT_ID      = 1992-008B
CENTER_NAME    = EARTH
REF_FRAME      = TEME
TIME_SYSTEM    = UTC
MEAN_ELEMENT_THEORY = SGP/SGP4

EPOCH          = 2025-11-21T14:26:22.781184
MEAN_MOTION    = 13.75952370
ECCENTRICITY   = .0036085
INCLINATION    = 82.9271
RA_OF_ASC_NODE = 348.1707
ARG_OF_PERICENTER = 77.2753
MEAN_ANOMALY   = 35.6835

EPHEMERIS_TYPE = 0
CLASSIFICATION_TYPE = U
NORAD_CAT_ID   = 21876
ELEMENT_SET_NO = 999
REV_AT_EPOCH   = 69455
BSTAR          = .12094E-3
MEAN_MOTION_DOT = .133E-5
MEAN_MOTION_DDOT = 0

CCSDS_OMM_VERS = 2.0
CREATION_DATE  = 
ORIGINATOR     = 

OBJECT_NAME    = SL-8 R/B
OBJECT_ID      = 1992-020B
CENTER_NAME    = EARTH
REF_FRAME      = TEME
TIME_SYSTEM    = UTC
MEAN_ELEMENT_THEORY = SGP/SGP4

EPOCH          = 2025-11-21T21:26:48.532992
MEAN_MOTION    = 13.75523224
ECCENTRICITY   = .0027761
INCLINATION    = 82.9315
RA_OF_ASC_NODE = 233.7954
ARG_OF_PERICENTER = 237.7370
MEAN_ANOMALY   = 192.7879

EPHEMERIS_TYPE = 0
CLASSIFICATION_TYPE = U
NORAD_CAT_ID   = 21938
ELEMENT_SET_NO = 999
REV_AT_EPOCH   = 68631
BSTAR          = .76543E-4
MEAN_MOTION_DOT = .89E-6
MEAN_MOTION_DDOT = 0

CCSDS_OMM_VERS = 2.0
CREATION_DATE  = 
ORIGINATOR     = 

OBJECT_NAME    = USA 81
OBJECT_ID      = 1992-023A
CENTER_NAME    = EARTH
REF_FRAME      = TEME
TIME_SYSTEM    = UTC
MEAN_ELEMENT_THEORY = SGP/SGP4

EPOCH          = 2025-11-21T17:26:30.003360
MEAN_MOTION    = 14.32316324
ECCENTRICITY   = .0002372
INCLINATION    = 85.0100
RA_OF_ASC_NODE = 193.6931
ARG_OF_PERICENTER = 69.0496
MEAN_ANOMALY   = 291.0950

EPHEMERIS_TYPE = 0
CLASSIFICATION_TYPE = U
NORAD_CAT_ID   = 21949
ELEMENT_SET_NO = 999
REV_AT_EPOCH   = 7933
BSTAR          = .71646E-4
MEAN_MOTION_DOT = .213E-5
MEAN_MOTION_DDOT = 0

CCSDS_OMM_VERS = 2.0
CREATION_DATE  = 
ORIGINATOR     = 

OBJECT_NAME    = COSMOS 2219
OBJECT_ID      = 1992-076A
CENTER_NAME    = EARTH
REF_FRAME      = TEME
TIME_SYSTEM    = UTC
MEAN_ELEMENT_THEORY = SGP/SGP4

EPOCH          = 2025-11-21T20:33:24.160896
MEAN_MOTION    = 14.14067330
ECCENTRICITY   = .001827
INCLINATION    = 71.0609
RA_OF_ASC_NODE = 243.4843
ARG_OF_PERICENTER = 356.3800
MEAN_ANOMALY   = 3.7187

EPHEMERIS_TYPE = 0
CLASSIFICATION_TYPE = U
NORAD_CAT_ID   = 22219
ELEMENT_SET_NO = 999
REV_AT_EPOCH   = 70313
BSTAR          = -.46572E-4
MEAN_MOTION_DOT = -.136E-5
MEAN_MOTION_DDOT = 0

CCSDS_OMM_VERS = 2.0
CREATION_DATE  = 
ORIGINATOR     = 

OBJECT_NAME    = SL-16 R/B
OBJECT_ID      = 1992-076B
CENTER_NAME    = EARTH
REF_FRAME      = TEME
TIME_SYSTEM    = UTC
MEAN_ELEMENT_THEORY = SGP/SGP4

EPOCH          = 2025-11-21T16:30:42.222816
MEAN_MOTION    = 14.16835615
ECCENTRICITY   = .0015159
INCLINATION    = 71.0010
RA_OF_ASC_NODE = 55.8753
ARG_OF_PERICENTER = 261.3975
MEAN_ANOMALY   = 209.7999

EPHEMERIS_TYPE = 0
CLASSIFICATION_TYPE = U
NORAD_CAT_ID   = 22220
ELEMENT_SET_NO = 999
REV_AT_EPOCH   = 70653
BSTAR          = .43224E-4
MEAN_MOTION_DOT = .39E-6
MEAN_MOTION_DDOT = 0

CCSDS_OMM_VERS = 2.0
CREATION_DATE  = 
ORIGINATOR     = 

OBJECT_NAME    = COSMOS 2221
OBJECT_ID      = 1992-080A
CENTER_NAME    = EARTH
REF_FRAME      = TEME
TIME_SYSTEM    = UTC
MEAN_ELEMENT_THEORY = SGP/SGP4

EPOCH          = 2025-11-21T14:39:07.822944
MEAN_MOTION    = 14.95646725
ECCENTRICITY   = .0014364
INCLINATION    = 82.5062
RA_OF_ASC_NODE = 22.5463
ARG_OF_PERICENTER = 189.7532
MEAN_ANOMALY   = 170.3413

EPHEMERIS_TYPE = 0
CLASSIFICATION_TYPE = U
NORAD_CAT_ID   = 22236
ELEMENT_SET_NO = 999
REV_AT_EPOCH   = 76463
BSTAR          = .15857E-3
MEAN_MOTION_DOT = .1791E-4
MEAN_MOTION_DDOT = 0

CCSDS_OMM_VERS = 2.0
CREATION_DATE  = 
ORIGINATOR     = 

OBJECT_NAME    = SL-16 R/B
OBJECT_ID      = 1992-093B
CENTER_NAME    = EARTH
REF_FRAME      = TEME
TIME_SYSTEM    = UTC
MEAN_ELEMENT_THEORY = SGP/SGP4

EPOCH          = 2025-11-21T19:48:35.836992
MEAN_MOTION    = 14.15428156
ECCENTRICITY   = .0002155
INCLINATION    = 71.0218
RA_OF_ASC_NODE = 230.6967
ARG_OF_PERICENTER = 135.4863
MEAN_ANOMALY   = 224.6433

EPHEMERIS_TYPE = 0
CLASSIFICATION_TYPE = U
NORAD_CAT_ID   = 22285
ELEMENT_SET_NO = 999
REV_AT_EPOCH   = 69789
BSTAR          = -.10219E-4
MEAN_MOTION_DOT = -.68E-6
MEAN_MOTION_DDOT = 0

