COSMOS 2151             
1 21422U 91042A   25325.80506860  .00001693  00000+0  13529-3 0  9998
2 21422  82.4977 187.6743 0014042  65.9169 294.3522 14.99579747847023
SL-14 R/B               
1 21423U 91042B   25325.50984205  .00000485  00000+0  58577-4 0  9990
2 21423  82.4913 321.6341 0015727 233.5476 126.4289 14.81710718837056
ERS-1                   
1 21574U 91050A   25325.60416497  .00000364  00000+0  13136-3 0  9997
2 21574  98.7915 336.1294 0032370 161.1961 199.0429 14.39341715800187
ARIANE 40 R/B           
1 21610U 91050F   25325.70404845  .00000394  00000+0  13061-3 0  9993
2 21610  98.2194  16.8911 0003978  56.5477 303.6094 14.42788021803421
INTERCOSMOS 25          
1 21819U 91086A   25325.58210103  .00001223  00000+0  23958-3 0  9999
2 21819  82.6078  15.3677 1487673 350.0156   7.4105 12.11632448483597
SL-8 R/B                
1 21876U 92008B   25325.60165256  .00000133  00000+0  12094-3 0  9996
2 21876  82.9271 348.1707 0036085  77.2753  35.6835 13.75952370694559
SL-8 R/B                
1 21938U 92020B   25325.89361728  .00000089  00000+0  76543-4 0  9992
2 21938  82.9315 233.7954 0027761 237.7370 192.7879 13.75523224686319
USA 81                  
1 21949U 92023A   25325.72673615  .00000213  00000+0  71646-4 0  9998
2 21949  85.0100 193.6931 0002372  69.0496 291.0950 14.32316324 79338
COSMOS 2219             
1 22219U 92076A   25325.85652964 -.00000136  00000+0 -46572-4 0  9991
2 22219  71.0609 243.4843 0018270 356.3800   3.7187 14.14067330703131
SL-16 R/B               
1 22220U 92076B   25325.68798869  .00000039  00000+0  43224-4 0  9990
2 22220  71.0010  55.8753 0015159 261.3975 209.7999 14.16835615706532
COSMOS 2221             
1 22236U 92080A   25325.61050721  .00001791  00000+0  15857-3 0  9999
2 22236  82.5062  22.5463 0014364 189.7532 170.3413 14.95646725764639
SL-16 R/B               
1 22285U 92093B   25325.82541478 -.00000068  00000+0 -10219-4 0  9990
2 22285  71.0218 230.6967 0002155 135.4863 224.6433 14.15428156697896
